[
    {
        "Altitude(m)": 605459.0526737468,
        "Argument of Periapsis(deg)": 0.0,
        "Eccentricity": 0.0,
        "Inclination(deg)": 60.0,
        "Latitude(deg)": 27.988291524718765,
        "Longitude(deg)": 152.79862875857614,
        "Mean Anomaly(deg)": 32.72730000000001,
        "RAAN(deg)": 235.0,
        "Satellite Name": "Test1 1036",
        "Satellite Number": 1036,
        "Semi-Major Axis(m)": 6980739.136638005,
        "Time(s)": 0
    },
    {
        "Altitude(m)": 605535.8438156967,
        "Argument of Periapsis(deg)": 0.00010418945913296404,
        "Eccentricity": 0.0,
        "Inclination(deg)": 60.0,
        "Latitude(deg)": 28.501420504669035,
        "Longitude(deg)": 153.15557505007962,
        "Mean Anomaly(deg)": 33.34740614546182,
        "RAAN(deg)": 234.99957995086027,
        "Satellite Name": "Test1 1036",
        "Satellite Number": 1036,
        "Semi-Major Axis(m)": 6980739.136638005,
        "Time(s)": 10
    }
]